satname,norad_id,inclination_deg,eccentricity,mean_motion_rev_per_day,perigee_km,apogee_km,l1,l2
STARLINK-1411,45706,53.0555,0.0001475,15.35170716,459.4047820573287,461.4221544454631,1 45706U 20035BB  25285.66668981  .00158041  00000+0  44796-2 0  9994,2 45706  53.0555 331.0676 0001475  42.9898  38.2831 15.35170716  5769
STARLINK-1423,45710,53.0556,0.0001589,15.06388528,546.1462747163232,548.3471616619636,1 45710U 20035BF  25285.48136439 -.00000278  00000+0  26590-6 0  9992,2 45710  53.0556 341.9571 0001589  89.6062 270.5109 15.06388528296813
STARLINK-1433,45711,53.0528,0.0001218,15.06422706,546.2984692143209,547.9854671709727,1 45711U 20035BG  25285.46289949  .00007562  00000+0  52569-3 0  9990,2 45711  53.0528 342.0338 0001218  86.8866 273.2262 15.06422706296802
STARLINK-1434,45712,53.0518,0.0002029,15.13599003,523.8344532506662,526.6358416681051,1 45712U 20035BH  25285.52842466  .00047171  00000+0  25967-2 0  9998,2 45712  53.0518 338.9818 0002029 350.3557   9.7395 15.13599003296864
STARLINK-1465,45731,53.0539,0.0001465,15.0641185,546.1606813899634,548.1897978761772,1 45731U 20038B   25285.42974773  .00005243  00000+0  37053-3 0  9992,2 45731  53.0539 182.1825 0001465  73.7312 286.3839 15.06411850293849
STARLINK-1471,45735,53.0504,0.0003484,15.39886617,444.06661264235845,448.8219808899448,1 45735U 20038F   25285.60824155  .00021986  00000+0  55310-3 0  9992,2 45735  53.0504 126.1996 0003484 120.1671 239.9678 15.39886617294658
STARLINK-1474,45738,53.0377,0.000414,15.63619255,374.41596899868273,380.0093985368421,1 45738U 20038J   25285.56250459  .00080879  00000+0  85079-3 0  9991,2 45738  53.0377  87.1703 0004140 204.6075 155.4742 15.63619255295190
STARLINK-1475,45739,53.0517,0.0002414,15.68229028,362.34051602977524,365.5956043528349,1 45739U 20038K   25285.66668981  .00235924  00000+0  20161-2 0  9999,2 45739  53.0517  54.1524 0002414 239.7765 212.2989 15.68229028  5845
STARLINK-1480,45741,53.0517,0.0001182,15.06401245,546.389166446691,548.0263179437452,1 45741U 20038M   25285.41131840 -.00000568  00000+0 -19212-4 0  9997,2 45741  53.0517 182.2650 0001182  95.6401 264.4723 15.06401245293858
STARLINK-1500,45744,53.0409,0.0004917,15.2656502,482.71485468257015,489.4651355095466,1 45744U 20038Q   25285.38710841  .00022655  00000+0  86508-3 0  9990,2 45744  53.0409 163.9626 0004917 127.0851 233.0596 15.26565020294101
STARLINK-1504,45746,53.0276,0.0006713,15.3731888,449.45500195283694,458.6278847308686,1 45746U 20038S   25285.60883948  .00094972  00000+0  25363-2 0  9998,2 45746  53.0276 129.1739 0006713 114.5087 245.6615 15.37318880294600
STARLINK-1506,45747,53.0501,0.0004529,15.20637421,500.7998460716908,507.03361033869896,1 45747U 20038T   25285.66203210  .00009761  00000+0  45330-3 0  9992,2 45747  53.0501 164.3649 0004529 150.6120 209.5130 15.20637421294120
STARLINK-1464,45751,53.054,0.0001403,15.06432917,546.1390616625931,548.0822861598926,1 45751U 20038X   25285.08142217  .00010654  00000+0  73238-3 0  9993,2 45751  53.0540 163.7477 0001403  90.6652 269.4498 15.06432917294085
STARLINK-1477,45754,53.0523,0.0002015,15.06402691,545.8078543505799,548.5987664956792,1 45754U 20038AA  25285.62694268  .00000560  00000+0  56532-4 0  9998,2 45754  53.0523 161.2971 0002015  88.4597 271.6623 15.06402691294164
STARLINK-1478,45755,53.0573,0.0002409,15.0640308,545.5338040043889,548.8704323915372,1 45755U 20038AB  25285.37998958 -.00001234  00000+0 -63950-4 0  9997,2 45755  53.0573 162.4066 0002409  84.2554 275.8710 15.06403080294113
STARLINK-1484,45756,53.0176,0.0002758,15.57004808,394.46275570052694,398.1995523342839,1 45756U 20038AC  25285.60288358  .00070477  00000+0  95684-3 0  9991,2 45756  53.0176  74.1478 0002758 175.4846 184.6190 15.57004808295372
STARLINK-1493,45759,53.0491,0.0001633,15.06405276,546.0644810264275,548.3262945842853,1 45759U 20038AF  25285.36891749  .00001393  00000+0  11236-3 0  9993,2 45759  53.0491 162.4547 0001633  78.7612 281.3561 15.06405276294116
STARLINK-1494,45760,53.0539,8.83e-05,15.49717089,416.9529491210624,418.15306797657195,1 45760U 20038AG  25285.66668981  .00097072  00000+0  17070-2 0  9998,2 45760  53.0539 152.1084 0000883 112.0727 339.5373 15.49717089  5862
STARLINK-1502,45764,53.0546,6.47e-05,15.06412668,546.7246650751858,547.6208001545874,1 45764U 20038AL  25284.93767325  .00003814  00000+0  27469-3 0  9998,2 45764  53.0546 164.3918 0000647  90.4782 269.6281 15.06412668294064
STARLINK-1470,45772,53.0485,0.0004949,15.16262452,513.7360465007896,520.5610001117584,1 45772U 20038AU  25285.58938333  .00051391  00000+0  26208-2 0  9990,2 45772  53.0485 135.3424 0004949 135.7514 224.3875 15.16262452294523
STARLINK-1482,45773,53.0533,0.0001532,15.06406496,546.1306883564366,548.2526090543988,1 45773U 20038AV  25285.63247411 -.00000564  00000+0 -18972-4 0  9996,2 45773  53.0533 141.2704 0001532 100.6313 259.4848 15.06406496294445
STARLINK-1485,45774,53.0429,0.0001992,15.90973054,298.228513560538,300.8889075316183,1 45774U 20038AW  25285.66668981  .00423883  79161-4  13258-2 0  9999,2 45774  53.0429  81.3290 0001992 295.8632  64.4966 15.90973054  6005
STARLINK-1496,45780,53.0532,0.0001361,15.06395749,546.2820449597139,548.1671283836049,1 45780U 20038BC  25285.33391642  .00000249  00000+0  35588-4 0  9997,2 45780  53.0532 142.6125 0001361  96.3119 263.8025 15.06395749294386
STARLINK-1497,45781,53.0416,0.0010367,15.47923453,415.7510733118743,429.8521394183117,1 45781U 20038BD  25285.66668981  .00192687  00000+0  35498-2 0  9993,2 45781  53.0416  92.4809 0010367 156.2018 105.7329 15.47923453  5902
STARLINK-1510,45784,53.0343,0.0005558,15.63030173,375.15433533939995,382.66546867567195,1 45784U 20038BG  25285.66668981  .00186429  00000+0  19731-2 0  9995,2 45784  53.0343  70.7664 0005558 117.0249  75.1408 15.63030173  5958
STARLINK-1513,45786,53.0557,0.0001777,15.06397923,545.9872880815165,548.4485592213823,1 45786U 20038BJ  25285.29705166  .00000598  00000+0  59056-4 0  9991,2 45786  53.0557 142.7787 0001777  86.5820 273.5372 15.06397923294395
STARLINK-1522,46027,53.0478,0.0002908,15.06397154,545.2063866349326,549.2341744292899,1 46027U 20055A   25285.41039317  .00001388  00000+0  11210-3 0  9998,2 46027  53.0478  72.2678 0002908  83.6414 276.4906 15.06397154286534
STARLINK-1523,46028,53.0538,0.0001407,15.06402635,546.2290866487338,548.1778774603836,1 46028U 20055B   25284.82800733  .00000281  00000+0  37753-4 0  9993,2 46028  53.0538  74.8851 0001407  83.5215 276.5934 15.06402635286469
